[
  {
    "id": 85160,
    "name": "129 Godefriduskaai",
    "straat": "Godefriduskaai",
    "postcode": 2000,
    "capaciteit": 36,
    "status": "IN_GEBRUIK",
    "free_bikes": 2,
    "free_slots": 29
  },
  {
    "id": 85161,
    "name": "002 Centraal station Astrid 2",
    "straat": "Koningin Astridplein",
    "postcode": 2018,
    "capaciteit": 36,
    "status": "IN_GEBRUIK",
    "free_bikes": 22,
    "free_slots": 0
  },
  {
    "id": 85162,
    "name": "026 Meir-Antoon Van Dijck",
    "straat": "Meir",
    "postcode": 2000,
    "capaciteit": 33,
    "status": "IN_GEBRUIK",
    "free_bikes": 16,
    "free_slots": 3
  },
  {
    "id": 85163,
    "name": "019 Eiermarkt",
    "straat": "Eiermarkt",
    "postcode": 2000,
    "capaciteit": 24,
    "status": "BUITEN_GEBRUIK",
    "free_bikes": 12,
    "free_slots": 0
  },
  {
    "id": 85164,
    "name": "020 Groenplaats 2",
    "straat": "Groenkerkhofstraat",
    "postcode": 2000,
    "capaciteit": 27,
    "status": "IN_GEBRUIK",
    "free_bikes": 14,
    "free_slots": 0
  },
  {
    "id": 85165,
    "name": "035 Cockerillkaai",
    "straat": "Cockerillkaai",
    "postcode": 2000,
    "capaciteit": 36,
    "status": "IN_GEBRUIK",
    "free_bikes": 0,
    "free_slots": 36
  },
  {
    "id": 85166,
    "name": "094 Paleisstraat",
    "straat": "Paleisstraat",
    "postcode": 2018,
    "capaciteit": 33,
    "status": "IN_GEBRUIK",
    "free_bikes": 4,
    "free_slots": 24
  },
  {
    "id": 85167,
    "name": "012 Brussel",
    "straat": "Singel",
    "postcode": 2018,
    "capaciteit": 36,
    "status": "IN_GEBRUIK",
    "free_bikes": 15,
    "free_slots": 0
  },
  {
    "id": 85168,
    "name": "027 Lange Nieuwstraat",
    "straat": "Lange Nieuwstraat",
    "postcode": 2000,
    "capaciteit": 36,
    "status": "IN_GEBRUIK",
    "free_bikes": 0,
    "free_slots": 36
  },
  {
    "id": 85169,
    "name": "044 Belgi\u00eblei",
    "straat": "Belgi\u00eblei",
    "postcode": 2018,
    "capaciteit": 36,
    "status": "IN_GEBRUIK",
    "free_bikes": 0,
    "free_slots": 36
  },
  {
    "id": 85170,
    "name": "006 Premetro Plantin",
    "straat": "Mercatorstraat",
    "postcode": 2018,
    "capaciteit": 24,
    "status": "IN_GEBRUIK",
    "free_bikes": 7,
    "free_slots": 15
  },
  {
    "id": 85171,
    "name": "111 Van Der Meyden",
    "straat": "Van Der Meydenstraat",
    "postcode": 2140,
    "capaciteit": 30,
    "status": "IN_GEBRUIK",
    "free_bikes": 5,
    "free_slots": 17
  },
  {
    "id": 85172,
    "name": "101 Premetro Handel",
    "straat": "Lange Stuivenbergstraat",
    "postcode": 2060,
    "capaciteit": 36,
    "status": "IN_GEBRUIK",
    "free_bikes": 0,
    "free_slots": 36
  },
  {
    "id": 85173,
    "name": "120 Eendracht",
    "straat": "Schijnpoortweg",
    "postcode": 2060,
    "capaciteit": 24,
    "status": "IN_GEBRUIK",
    "free_bikes": 11,
    "free_slots": 0
  },
  {
    "id": 85174,
    "name": "144 August Vermeylenlaan",
    "straat": "August Vermeylenlaan",
    "postcode": 2050,
    "capaciteit": 36,
    "status": "IN_GEBRUIK",
    "free_bikes": 21,
    "free_slots": 0
  },
  {
    "id": 85175,
    "name": "145 De Coster",
    "straat": "August Vermeylenlaan",
    "postcode": 2050,
    "capaciteit": 24,
    "status": "IN_GEBRUIK",
    "free_bikes": 0,
    "free_slots": 24
  },
  {
    "id": 85176,
    "name": "153 Beatrijslaan",
    "straat": "Beatrijslaan",
    "postcode": 2050,
    "capaciteit": 36,
    "status": "IN_GEBRUIK",
    "free_bikes": 20,
    "free_slots": 3
  },
  {
    "id": 85177,
    "name": "152 Blancefloerlaan",
    "straat": "Blancefloerlaan",
    "postcode": 2050,
    "capaciteit": 36,
    "status": "IN_GEBRUIK",
    "free_bikes": 19,
    "free_slots": 0
  },
  {
    "id": 85178,
    "name": "149 Van Eedenplein",
    "straat": "Blancefloerlaan",
    "postcode": 2050,
    "capaciteit": 36,
    "status": "IN_GEBRUIK",
    "free_bikes": 8,
    "free_slots": 13
  },
  {
    "id": 85179,
    "name": "142 Esmoreitlaan",
    "straat": "Esmoreitlaan",
    "postcode": 2050,
    "capaciteit": 36,
    "status": "IN_GEBRUIK",
    "free_bikes": 22,
    "free_slots": 0
  },
  {
    "id": 85180,
    "name": "148 Verhaerenlaan",
    "straat": "Frederik Van Eedenplein",
    "postcode": 2050,
    "capaciteit": 36,
    "status": "IN_GEBRUIK",
    "free_bikes": 14,
    "free_slots": 6
  },
  {
    "id": 85181,
    "name": "143 Melis Stokelaan",
    "straat": "Bouvaertlaan",
    "postcode": 2050,
    "capaciteit": 36,
    "status": "IN_GEBRUIK",
    "free_bikes": 0,
    "free_slots": 36
  },
  {
    "id": 85182,
    "name": "141 Sint-Anna",
    "straat": "Gloriantlaan",
    "postcode": 2050,
    "capaciteit": 36,
    "status": "IN_GEBRUIK",
    "free_bikes": 8,
    "free_slots": 18
  },
  {
    "id": 85183,
    "name": "140 Jachthaven LO",
    "straat": "Thonetlaan",
    "postcode": 2050,
    "capaciteit": 36,
    "status": "IN_GEBRUIK",
    "free_bikes": 21,
    "free_slots": 1
  },
  {
    "id": 85184,
    "name": "147 Halewijnlaan",
    "straat": "Halewijnlaan",
    "postcode": 2050,
    "capaciteit": 24,
    "status": "IN_GEBRUIK",
    "free_bikes": 13,
    "free_slots": 0
  },
  {
    "id": 85185,
    "name": "146 Reinaartlaan",
    "straat": "Reinaartlaan",
    "postcode": 2050,
    "capaciteit": 33,
    "status": "IN_GEBRUIK",
    "free_bikes": 12,
    "free_slots": 1
  },
  {
    "id": 85186,
    "name": "150 Waterhoenlaan",
    "straat": "Waterhoenlaan",
    "postcode": 2050,
    "capaciteit": 24,
    "status": "IN_GEBRUIK",
    "free_bikes": 0,
    "free_slots": 23
  },
  {
    "id": 85187,
    "name": "138 Amsterdamstraat",
    "straat": "Amsterdamstraat",
    "postcode": 2000,
    "capaciteit": 24,
    "status": "IN_GEBRUIK",
    "free_bikes": 0,
    "free_slots": 24
  },
  {
    "id": 85188,
    "name": "139 Londenstraat",
    "straat": "Londenstraat",
    "postcode": 2000,
    "capaciteit": 21,
    "status": "IN_GEBRUIK",
    "free_bikes": 0,
    "free_slots": 21
  },
  {
    "id": 85189,
    "name": "137 Sint-Laureiskaai",
    "straat": "Sint-Laureiskaai",
    "postcode": 2000,
    "capaciteit": 36,
    "status": "IN_GEBRUIK",
    "free_bikes": 0,
    "free_slots": 36
  },
  {
    "id": 85190,
    "name": "060 Grote Markt",
    "straat": "Wisselstraat",
    "postcode": 2000,
    "capaciteit": 36,
    "status": "IN_GEBRUIK",
    "free_bikes": 0,
    "free_slots": 36
  },
  {
    "id": 85191,
    "name": "127 FOD Financi\u00ebn",
    "straat": "Itali\u00eblei",
    "postcode": 2000,
    "capaciteit": 30,
    "status": "IN_GEBRUIK",
    "free_bikes": 15,
    "free_slots": 0
  },
  {
    "id": 85192,
    "name": "014 Markgrave",
    "straat": "Jan Van Rijswijcklaan",
    "postcode": 2018,
    "capaciteit": 36,
    "status": "IN_GEBRUIK",
    "free_bikes": 0,
    "free_slots": 36
  },
  {
    "id": 85193,
    "name": "050 Klapdorp",
    "straat": "Sint-Paulusstraat",
    "postcode": 2000,
    "capaciteit": 21,
    "status": "IN_GEBRUIK",
    "free_bikes": 0,
    "free_slots": 21
  },
  {
    "id": 85194,
    "name": "077 Blauwtorenplein",
    "straat": "Oudevaartplaats",
    "postcode": 2000,
    "capaciteit": 36,
    "status": "IN_GEBRUIK",
    "free_bikes": 16,
    "free_slots": 12
  },
  {
    "id": 85195,
    "name": "080 Montigny",
    "straat": "Amerikalei",
    "postcode": 2000,
    "capaciteit": 36,
    "status": "IN_GEBRUIK",
    "free_bikes": 0,
    "free_slots": 36
  },
  {
    "id": 85196,
    "name": "040 Desguinlei ",
    "straat": "Desguinlei",
    "postcode": 2018,
    "capaciteit": 36,
    "status": "IN_GEBRUIK",
    "free_bikes": 0,
    "free_slots": 36
  },
  {
    "id": 85197,
    "name": "102 Duinstraat",
    "straat": "Duinstraat",
    "postcode": 2060,
    "capaciteit": 36,
    "status": "IN_GEBRUIK",
    "free_bikes": 0,
    "free_slots": 36
  },
  {
    "id": 85198,
    "name": "126 Lange Dijk",
    "straat": "Lange Dijkstraat",
    "postcode": 2060,
    "capaciteit": 36,
    "status": "IN_GEBRUIK",
    "free_bikes": 0,
    "free_slots": 36
  },
  {
    "id": 85199,
    "name": "076 Prekersplein",
    "straat": "Nationalestraat",
    "postcode": 2000,
    "capaciteit": 24,
    "status": "IN_GEBRUIK",
    "free_bikes": 0,
    "free_slots": 24
  },
  {
    "id": 85200,
    "name": "043 Gr\u00e9trystraat",
    "straat": "Belgi\u00eblei",
    "postcode": 2018,
    "capaciteit": 30,
    "status": "IN_GEBRUIK",
    "free_bikes": 6,
    "free_slots": 12
  },
  {
    "id": 85201,
    "name": "008 NMBS Berchem 2",
    "straat": "Burgemeester E. Ryckaertsplein",
    "postcode": 2600,
    "capaciteit": 30,
    "status": "IN_GEBRUIK",
    "free_bikes": 7,
    "free_slots": 18
  },
  {
    "id": 85202,
    "name": "112 Pretoriastraat",
    "straat": "Uitbreidingstraat",
    "postcode": 2600,
    "capaciteit": 36,
    "status": "IN_GEBRUIK",
    "free_bikes": 17,
    "free_slots": 0
  },
  {
    "id": 85203,
    "name": "016 Marnixplaats",
    "straat": "Karel Rogierstraat",
    "postcode": 2000,
    "capaciteit": 27,
    "status": "IN_GEBRUIK",
    "free_bikes": 3,
    "free_slots": 21
  },
  {
    "id": 85204,
    "name": "069 Fonteinstraat",
    "straat": "Fonteinstraat",
    "postcode": 2140,
    "capaciteit": 36,
    "status": "IN_GEBRUIK",
    "free_bikes": 16,
    "free_slots": 0
  },
  {
    "id": 85205,
    "name": "151 Van Cauwelaert",
    "straat": "Blancefloerlaan",
    "postcode": 2050,
    "capaciteit": 36,
    "status": "IN_GEBRUIK",
    "free_bikes": 23,
    "free_slots": 0
  },
  {
    "id": 85206,
    "name": "024 Opera",
    "straat": "De Keyserlei",
    "postcode": 2018,
    "capaciteit": 30,
    "status": "IN_GEBRUIK",
    "free_bikes": 2,
    "free_slots": 26
  },
  {
    "id": 85207,
    "name": "046 De Merode",
    "straat": "Grotesteenweg",
    "postcode": 2600,
    "capaciteit": 36,
    "status": "BUITEN_GEBRUIK",
    "free_bikes": 24,
    "free_slots": 0
  },
  {
    "id": 85208,
    "name": "047 Militair Hospitaal",
    "straat": "Boomgaardstraat",
    "postcode": 2018,
    "capaciteit": 36,
    "status": "IN_GEBRUIK",
    "free_bikes": 18,
    "free_slots": 0
  },
  {
    "id": 85209,
    "name": "119 Ploeg",
    "straat": "Provinciestraat",
    "postcode": 2018,
    "capaciteit": 24,
    "status": "IN_GEBRUIK",
    "free_bikes": 11,
    "free_slots": 0
  },
  {
    "id": 85210,
    "name": "125 Sint-Norbertus",
    "straat": "Van Kerckhovenstraat",
    "postcode": 2060,
    "capaciteit": 36,
    "status": "IN_GEBRUIK",
    "free_bikes": 0,
    "free_slots": 36
  },
  {
    "id": 85211,
    "name": "051 Mutsaardplein",
    "straat": "Mutsaardstraat",
    "postcode": 2000,
    "capaciteit": 36,
    "status": "IN_GEBRUIK",
    "free_bikes": 0,
    "free_slots": 36
  },
  {
    "id": 85212,
    "name": "041 Van Eyck",
    "straat": "Fransenplaats",
    "postcode": 2018,
    "capaciteit": 27,
    "status": "IN_GEBRUIK",
    "free_bikes": 6,
    "free_slots": 8
  },
  {
    "id": 85213,
    "name": "055 Zonnebloemstraat",
    "straat": "Vredestraat",
    "postcode": 2600,
    "capaciteit": 33,
    "status": "IN_GEBRUIK",
    "free_bikes": 19,
    "free_slots": 0
  },
  {
    "id": 85214,
    "name": "003 Centraal station Kievit 2",
    "straat": "Kievitplein",
    "postcode": 2018,
    "capaciteit": 30,
    "status": "IN_GEBRUIK",
    "free_bikes": 13,
    "free_slots": 10
  },
  {
    "id": 85215,
    "name": "110 Dageraadplaats",
    "straat": "Dageraadplaats",
    "postcode": 2018,
    "capaciteit": 36,
    "status": "IN_GEBRUIK",
    "free_bikes": 5,
    "free_slots": 28
  },
  {
    "id": 85216,
    "name": "061 Victor Jacobslei",
    "straat": "Statiestraat",
    "postcode": 2600,
    "capaciteit": 30,
    "status": "IN_GEBRUIK",
    "free_bikes": 1,
    "free_slots": 28
  },
  {
    "id": 85217,
    "name": "021 Driekoningen",
    "straat": "Grotesteenweg",
    "postcode": 2600,
    "capaciteit": 30,
    "status": "IN_GEBRUIK",
    "free_bikes": 0,
    "free_slots": 30
  },
  {
    "id": 85218,
    "name": "022 Statie",
    "straat": "Statiestraat",
    "postcode": 2600,
    "capaciteit": 33,
    "status": "IN_GEBRUIK",
    "free_bikes": 15,
    "free_slots": 0
  },
  {
    "id": 85219,
    "name": "030 Het Laar",
    "straat": "Laar",
    "postcode": 2140,
    "capaciteit": 24,
    "status": "IN_GEBRUIK",
    "free_bikes": 7,
    "free_slots": 9
  },
  {
    "id": 85220,
    "name": "039 Koxplein",
    "straat": "Betogingstraat",
    "postcode": 2140,
    "capaciteit": 36,
    "status": "IN_GEBRUIK",
    "free_bikes": 12,
    "free_slots": 19
  },
  {
    "id": 85221,
    "name": "108 Krugerpark",
    "straat": "Krugerplein",
    "postcode": 2140,
    "capaciteit": 36,
    "status": "IN_GEBRUIK",
    "free_bikes": 0,
    "free_slots": 33
  },
  {
    "id": 85222,
    "name": "004 Keyserlei",
    "straat": "De Keyserlei",
    "postcode": 2018,
    "capaciteit": 21,
    "status": "IN_GEBRUIK",
    "free_bikes": 8,
    "free_slots": 0
  },
  {
    "id": 85223,
    "name": "028 Keizerstraat",
    "straat": "Keizerstraat",
    "postcode": 2000,
    "capaciteit": 24,
    "status": "IN_GEBRUIK",
    "free_bikes": 2,
    "free_slots": 20
  },
  {
    "id": 85224,
    "name": "130 Larmoriniere",
    "straat": "Lamorini\u00e8restraat",
    "postcode": 2018,
    "capaciteit": 18,
    "status": "IN_GEBRUIK",
    "free_bikes": 0,
    "free_slots": 18
  },
  {
    "id": 85225,
    "name": "093 Sint Vincentius",
    "straat": "Sint-Vincentiusstraat",
    "postcode": 2018,
    "capaciteit": 30,
    "status": "IN_GEBRUIK",
    "free_bikes": 3,
    "free_slots": 22
  },
  {
    "id": 85226,
    "name": "089 Hof van Leysen",
    "straat": "Van Schoonbekestraat",
    "postcode": 2018,
    "capaciteit": 36,
    "status": "IN_GEBRUIK",
    "free_bikes": 4,
    "free_slots": 29
  },
  {
    "id": 85227,
    "name": "085 Den Bell",
    "straat": "Boudewijnsstraat",
    "postcode": 2018,
    "capaciteit": 36,
    "status": "IN_GEBRUIK",
    "free_bikes": 0,
    "free_slots": 36
  },
  {
    "id": 85228,
    "name": "096 Stadspark",
    "straat": "Rubenslei",
    "postcode": 2018,
    "capaciteit": 24,
    "status": "IN_GEBRUIK",
    "free_bikes": 0,
    "free_slots": 24
  },
  {
    "id": 85229,
    "name": "065 Plantinkaai",
    "straat": "Plantinkaai",
    "postcode": 2000,
    "capaciteit": 33,
    "status": "IN_GEBRUIK",
    "free_bikes": 15,
    "free_slots": 0
  },
  {
    "id": 85230,
    "name": "017 Groenplaats",
    "straat": "Groenplaats",
    "postcode": 2000,
    "capaciteit": 18,
    "status": "IN_GEBRUIK",
    "free_bikes": 10,
    "free_slots": 0
  },
  {
    "id": 85231,
    "name": "054 Ossenmarkt",
    "straat": "Pieter Van Hobokenstraat",
    "postcode": 2000,
    "capaciteit": 21,
    "status": "IN_GEBRUIK",
    "free_bikes": 13,
    "free_slots": 0
  },
  {
    "id": 85232,
    "name": "118 Dambrugge",
    "straat": "Trapstraat",
    "postcode": 2060,
    "capaciteit": 21,
    "status": "IN_GEBRUIK",
    "free_bikes": 6,
    "free_slots": 15
  },
  {
    "id": 85233,
    "name": "121 Stuivenbergplein",
    "straat": "Stuivenbergplein",
    "postcode": 2060,
    "capaciteit": 30,
    "status": "IN_GEBRUIK",
    "free_bikes": 7,
    "free_slots": 11
  },
  {
    "id": 85234,
    "name": "103 Oude Kerk Berchem",
    "straat": "Binnensingel",
    "postcode": 2600,
    "capaciteit": 36,
    "status": "IN_GEBRUIK",
    "free_bikes": 5,
    "free_slots": 19
  },
  {
    "id": 85235,
    "name": "031 Wezenberg",
    "straat": "Karel Oomsstraat",
    "postcode": 2018,
    "capaciteit": 36,
    "status": "IN_GEBRUIK",
    "free_bikes": 20,
    "free_slots": 0
  },
  {
    "id": 85236,
    "name": "131 De Wittestraat",
    "straat": "De Wittestraat",
    "postcode": 2600,
    "capaciteit": 21,
    "status": "IN_GEBRUIK",
    "free_bikes": 1,
    "free_slots": 13
  },
  {
    "id": 85237,
    "name": "100 Van Hombeeckplein",
    "straat": "Frans Van Hombeeckplein",
    "postcode": 2600,
    "capaciteit": 33,
    "status": "IN_GEBRUIK",
    "free_bikes": 20,
    "free_slots": 0
  },
  {
    "id": 85238,
    "name": "099 Generaal Leman",
    "straat": "Generaal Lemanstraat",
    "postcode": 2018,
    "capaciteit": 24,
    "status": "IN_GEBRUIK",
    "free_bikes": 0,
    "free_slots": 24
  },
  {
    "id": 85239,
    "name": "010 NMBS Zuid",
    "straat": "Desguinlei",
    "postcode": 2018,
    "capaciteit": 36,
    "status": "IN_GEBRUIK",
    "free_bikes": 18,
    "free_slots": 0
  },
  {
    "id": 85240,
    "name": "098 Haringrode",
    "straat": "Boomgaardstraat",
    "postcode": 2018,
    "capaciteit": 21,
    "status": "BUITEN_GEBRUIK",
    "free_bikes": 0,
    "free_slots": 21
  },
  {
    "id": 85241,
    "name": "087 Lange Elzen",
    "straat": "Lange Elzenstraat",
    "postcode": 2018,
    "capaciteit": 21,
    "status": "IN_GEBRUIK",
    "free_bikes": 11,
    "free_slots": 0
  },
  {
    "id": 85242,
    "name": "007 NMBS Berchem ",
    "straat": "Burgemeester E. Ryckaertsplein",
    "postcode": 2600,
    "capaciteit": 36,
    "status": "IN_GEBRUIK",
    "free_bikes": 9,
    "free_slots": 15
  },
  {
    "id": 85243,
    "name": "009 NMBS Oost",
    "straat": "Vandenpeereboomstraat",
    "postcode": 2140,
    "capaciteit": 30,
    "status": "IN_GEBRUIK",
    "free_bikes": 15,
    "free_slots": 8
  },
  {
    "id": 85244,
    "name": "088 Haantjeslei",
    "straat": "Van Trierstraat",
    "postcode": 2018,
    "capaciteit": 21,
    "status": "IN_GEBRUIK",
    "free_bikes": 11,
    "free_slots": 0
  },
  {
    "id": 85245,
    "name": "029 Lozana",
    "straat": "Lange Lozanastraat",
    "postcode": 2018,
    "capaciteit": 18,
    "status": "IN_GEBRUIK",
    "free_bikes": 0,
    "free_slots": 18
  },
  {
    "id": 85246,
    "name": "042 Harmonie",
    "straat": "Mechelsesteenweg",
    "postcode": 2018,
    "capaciteit": 21,
    "status": "IN_GEBRUIK",
    "free_bikes": 8,
    "free_slots": 3
  },
  {
    "id": 85247,
    "name": "097 Cuperus",
    "straat": "Stanleystraat",
    "postcode": 2018,
    "capaciteit": 21,
    "status": "IN_GEBRUIK",
    "free_bikes": 11,
    "free_slots": 0
  },
  {
    "id": 85248,
    "name": "086 Troonplaats",
    "straat": "Troonplaats",
    "postcode": 2018,
    "capaciteit": 27,
    "status": "IN_GEBRUIK",
    "free_bikes": 10,
    "free_slots": 8
  },
  {
    "id": 85249,
    "name": "092 Sint-Thomas",
    "straat": "Mechelsesteenweg",
    "postcode": 2018,
    "capaciteit": 21,
    "status": "IN_GEBRUIK",
    "free_bikes": 10,
    "free_slots": 0
  },
  {
    "id": 85250,
    "name": "090 Ballaarstraat",
    "straat": "Vinkenstraat",
    "postcode": 2018,
    "capaciteit": 18,
    "status": "IN_GEBRUIK",
    "free_bikes": 10,
    "free_slots": 0
  },
  {
    "id": 85251,
    "name": "081 Justitiepaleis",
    "straat": "Bolivarplaats",
    "postcode": 2000,
    "capaciteit": 27,
    "status": "IN_GEBRUIK",
    "free_bikes": 17,
    "free_slots": 2
  },
  {
    "id": 85252,
    "name": "106 Draakplaats",
    "straat": "Draakplaats",
    "postcode": 2600,
    "capaciteit": 33,
    "status": "IN_GEBRUIK",
    "free_bikes": 0,
    "free_slots": 33
  },
  {
    "id": 85253,
    "name": "083 Brederode",
    "straat": "Amerikalei",
    "postcode": 2000,
    "capaciteit": 27,
    "status": "IN_GEBRUIK",
    "free_bikes": 14,
    "free_slots": 0
  },
  {
    "id": 85254,
    "name": "015 Schone Kunsten",
    "straat": "Beeldhouwersstraat",
    "postcode": 2000,
    "capaciteit": 36,
    "status": "IN_GEBRUIK",
    "free_bikes": 7,
    "free_slots": 15
  },
  {
    "id": 85255,
    "name": "104 Mercator",
    "straat": "Provinciestraat",
    "postcode": 2018,
    "capaciteit": 18,
    "status": "IN_GEBRUIK",
    "free_bikes": 7,
    "free_slots": 11
  },
  {
    "id": 85256,
    "name": "082 Fotografiemuseum",
    "straat": "Waalsekaai",
    "postcode": 2000,
    "capaciteit": 36,
    "status": "IN_GEBRUIK",
    "free_bikes": 0,
    "free_slots": 36
  },
  {
    "id": 85257,
    "name": "091 Hemelstraat",
    "straat": "Mechelsesteenweg",
    "postcode": 2018,
    "capaciteit": 18,
    "status": "IN_GEBRUIK",
    "free_bikes": 7,
    "free_slots": 7
  },
  {
    "id": 85258,
    "name": "105 Plantin en Moretus",
    "straat": "Lange Van Ruusbroecstraat",
    "postcode": 2018,
    "capaciteit": 33,
    "status": "IN_GEBRUIK",
    "free_bikes": 3,
    "free_slots": 27
  },
  {
    "id": 85259,
    "name": "078 Oud Gerechtshof",
    "straat": "Britselei",
    "postcode": 2000,
    "capaciteit": 27,
    "status": "IN_GEBRUIK",
    "free_bikes": 0,
    "free_slots": 27
  },
  {
    "id": 85260,
    "name": "075 Vlaamsekaai",
    "straat": "Vlaamsekaai",
    "postcode": 2000,
    "capaciteit": 21,
    "status": "IN_GEBRUIK",
    "free_bikes": 12,
    "free_slots": 0
  },
  {
    "id": 85261,
    "name": "116 Loosplaats",
    "straat": "Van Eycklei",
    "postcode": 2018,
    "capaciteit": 18,
    "status": "IN_GEBRUIK",
    "free_bikes": 4,
    "free_slots": 0
  },
  {
    "id": 85262,
    "name": "034 MUKHA",
    "straat": "Waalsekaai",
    "postcode": 2000,
    "capaciteit": 24,
    "status": "IN_GEBRUIK",
    "free_bikes": 11,
    "free_slots": 0
  },
  {
    "id": 85263,
    "name": "079 Nationale Bank",
    "straat": "Britselei",
    "postcode": 2000,
    "capaciteit": 36,
    "status": "IN_GEBRUIK",
    "free_bikes": 0,
    "free_slots": 36
  },
  {
    "id": 85264,
    "name": "132 Montgomery",
    "straat": "Maarschalk Montgomeryplein",
    "postcode": 2140,
    "capaciteit": 18,
    "status": "IN_GEBRUIK",
    "free_bikes": 1,
    "free_slots": 15
  },
  {
    "id": 85265,
    "name": "072 Tropisch Instituut",
    "straat": "Kronenburgstraat",
    "postcode": 2000,
    "capaciteit": 36,
    "status": "IN_GEBRUIK",
    "free_bikes": 0,
    "free_slots": 36
  },
  {
    "id": 85266,
    "name": "074 Vismijn",
    "straat": "Kloosterstraat",
    "postcode": 2000,
    "capaciteit": 30,
    "status": "IN_GEBRUIK",
    "free_bikes": 0,
    "free_slots": 30
  },
  {
    "id": 85267,
    "name": "005 Centraal Station - Kievit",
    "straat": "Kievitplein",
    "postcode": 2018,
    "capaciteit": 36,
    "status": "IN_GEBRUIK",
    "free_bikes": 0,
    "free_slots": 36
  },
  {
    "id": 85268,
    "name": "084 Elzenveld",
    "straat": "Lange Gasthuisstraat",
    "postcode": 2000,
    "capaciteit": 33,
    "status": "IN_GEBRUIK",
    "free_bikes": 7,
    "free_slots": 15
  },
  {
    "id": 85269,
    "name": "107 Moorkensplein",
    "straat": "Moorkensplein",
    "postcode": 2140,
    "capaciteit": 36,
    "status": "IN_GEBRUIK",
    "free_bikes": 19,
    "free_slots": 0
  },
  {
    "id": 85270,
    "name": "037 Theater",
    "straat": "Tabakvest",
    "postcode": 2000,
    "capaciteit": 30,
    "status": "IN_GEBRUIK",
    "free_bikes": 0,
    "free_slots": 30
  },
  {
    "id": 85271,
    "name": "095 Quinten Matsijs ",
    "straat": "Quinten Matsijslei",
    "postcode": 2018,
    "capaciteit": 30,
    "status": "IN_GEBRUIK",
    "free_bikes": 0,
    "free_slots": 30
  },
  {
    "id": 85272,
    "name": "070 Sint-Andries",
    "straat": "Sint-Andriesplaats",
    "postcode": 2000,
    "capaciteit": 30,
    "status": "IN_GEBRUIK",
    "free_bikes": 0,
    "free_slots": 30
  },
  {
    "id": 85273,
    "name": "071 Sint-Michielskaai",
    "straat": "Sint-Michielskaai",
    "postcode": 2000,
    "capaciteit": 36,
    "status": "IN_GEBRUIK",
    "free_bikes": 0,
    "free_slots": 36
  },
  {
    "id": 85274,
    "name": "067 Oudaan",
    "straat": "Oudaan",
    "postcode": 2000,
    "capaciteit": 36,
    "status": "IN_GEBRUIK",
    "free_bikes": 15,
    "free_slots": 0
  },
  {
    "id": 85275,
    "name": "036 Bourla",
    "straat": "Arenbergstraat",
    "postcode": 2000,
    "capaciteit": 33,
    "status": "IN_GEBRUIK",
    "free_bikes": 15,
    "free_slots": 0
  },
  {
    "id": 85276,
    "name": "Hopland",
    "straat": "Meistraat",
    "postcode": 2000,
    "capaciteit": 36,
    "status": "IN_GEBRUIK",
    "free_bikes": 18,
    "free_slots": 4
  },
  {
    "id": 85277,
    "name": "066 Modemuseum",
    "straat": "Drukkerijstraat",
    "postcode": 2000,
    "capaciteit": 24,
    "status": "IN_GEBRUIK",
    "free_bikes": 0,
    "free_slots": 24
  },
  {
    "id": 85278,
    "name": "001 Centraal Station - Astrid",
    "straat": "Koningin Astridplein",
    "postcode": 2018,
    "capaciteit": 33,
    "status": "IN_GEBRUIK",
    "free_bikes": 16,
    "free_slots": 0
  },
  {
    "id": 85279,
    "name": "018 Meirbrug",
    "straat": "Meir",
    "postcode": 2000,
    "capaciteit": 36,
    "status": "IN_GEBRUIK",
    "free_bikes": 18,
    "free_slots": 0
  },
  {
    "id": 85280,
    "name": "025 Teniersplaats",
    "straat": "Leysstraat",
    "postcode": 2000,
    "capaciteit": 36,
    "status": "IN_GEBRUIK",
    "free_bikes": 0,
    "free_slots": 36
  },
  {
    "id": 85281,
    "name": "109 Kerkstraat",
    "straat": "Kerkstraat",
    "postcode": 2060,
    "capaciteit": 33,
    "status": "IN_GEBRUIK",
    "free_bikes": 0,
    "free_slots": 33
  },
  {
    "id": 85282,
    "name": "113 Helmstraat",
    "straat": "Vercammenstraat",
    "postcode": 2140,
    "capaciteit": 36,
    "status": "IN_GEBRUIK",
    "free_bikes": 18,
    "free_slots": 0
  },
  {
    "id": 85283,
    "name": "064 Zuiderterras",
    "straat": "Plantinkaai",
    "postcode": 2000,
    "capaciteit": 36,
    "status": "IN_GEBRUIK",
    "free_bikes": 0,
    "free_slots": 36
  },
  {
    "id": 85284,
    "name": "011 Roosevelt",
    "straat": "Osystraat",
    "postcode": 2000,
    "capaciteit": 36,
    "status": "IN_GEBRUIK",
    "free_bikes": 4,
    "free_slots": 30
  },
  {
    "id": 85285,
    "name": "059 Het Steen",
    "straat": "Ernest Van Dijckkaai",
    "postcode": 2000,
    "capaciteit": 36,
    "status": "IN_GEBRUIK",
    "free_bikes": 16,
    "free_slots": 0
  },
  {
    "id": 85286,
    "name": "057 Wolstraat",
    "straat": "Wolstraat",
    "postcode": 2000,
    "capaciteit": 21,
    "status": "IN_GEBRUIK",
    "free_bikes": 10,
    "free_slots": 0
  },
  {
    "id": 85287,
    "name": "032 Permeke",
    "straat": "De Coninckplein",
    "postcode": 2060,
    "capaciteit": 27,
    "status": "IN_GEBRUIK",
    "free_bikes": 8,
    "free_slots": 0
  },
  {
    "id": 85288,
    "name": "114 ZNA Stuivenberg",
    "straat": "Pesthofstraat",
    "postcode": 2060,
    "capaciteit": 36,
    "status": "IN_GEBRUIK",
    "free_bikes": 0,
    "free_slots": 36
  },
  {
    "id": 85289,
    "name": "056 Minderbroedersrui",
    "straat": "Minderbroedersrui",
    "postcode": 2000,
    "capaciteit": 30,
    "status": "IN_GEBRUIK",
    "free_bikes": 7,
    "free_slots": 13
  },
  {
    "id": 85290,
    "name": "115 Metro Elisabeth",
    "straat": "Sint-Elisabethstraat",
    "postcode": 2060,
    "capaciteit": 21,
    "status": "IN_GEBRUIK",
    "free_bikes": 2,
    "free_slots": 19
  },
  {
    "id": 85291,
    "name": "058 Noorderterras",
    "straat": "Jordaenskaai",
    "postcode": 2000,
    "capaciteit": 30,
    "status": "IN_GEBRUIK",
    "free_bikes": 0,
    "free_slots": 30
  },
  {
    "id": 85292,
    "name": "053 Paardenmarkt",
    "straat": "Paardenmarkt",
    "postcode": 2000,
    "capaciteit": 21,
    "status": "IN_GEBRUIK",
    "free_bikes": 8,
    "free_slots": 0
  },
  {
    "id": 85293,
    "name": "122 Schijnpoort",
    "straat": "Pothoekstraat",
    "postcode": 2060,
    "capaciteit": 21,
    "status": "IN_GEBRUIK",
    "free_bikes": 2,
    "free_slots": 17
  },
  {
    "id": 85294,
    "name": "117 Sint-Jansplein",
    "straat": "Sint-Jansplein",
    "postcode": 2060,
    "capaciteit": 30,
    "status": "IN_GEBRUIK",
    "free_bikes": 2,
    "free_slots": 26
  },
  {
    "id": 85295,
    "name": "052 Waaslandtunnel",
    "straat": "Entrepotkaai",
    "postcode": 2000,
    "capaciteit": 36,
    "status": "IN_GEBRUIK",
    "free_bikes": 12,
    "free_slots": 12
  },
  {
    "id": 85296,
    "name": "049 Tolhuis",
    "straat": "Sint-Pietersvliet",
    "postcode": 2000,
    "capaciteit": 27,
    "status": "IN_GEBRUIK",
    "free_bikes": 0,
    "free_slots": 27
  },
  {
    "id": 85297,
    "name": "033 Hessenhuis",
    "straat": "Hessenplein",
    "postcode": 2000,
    "capaciteit": 21,
    "status": "IN_GEBRUIK",
    "free_bikes": 0,
    "free_slots": 21
  },
  {
    "id": 85298,
    "name": "135 Loodswezen",
    "straat": "Sint-Aldegondiskaai",
    "postcode": 2000,
    "capaciteit": 36,
    "status": "IN_GEBRUIK",
    "free_bikes": 4,
    "free_slots": 28
  },
  {
    "id": 85299,
    "name": "045 Falconplein",
    "straat": "Oudeleeuwenrui",
    "postcode": 2000,
    "capaciteit": 36,
    "status": "IN_GEBRUIK",
    "free_bikes": 0,
    "free_slots": 36
  },
  {
    "id": 85300,
    "name": "134 MAS",
    "straat": "Godefriduskaai",
    "postcode": 2000,
    "capaciteit": 36,
    "status": "IN_GEBRUIK",
    "free_bikes": 0,
    "free_slots": 36
  },
  {
    "id": 85301,
    "name": "123 Park Spoor Noord 2",
    "straat": "Vis\u00e9straat",
    "postcode": 2060,
    "capaciteit": 18,
    "status": "IN_GEBRUIK",
    "free_bikes": 9,
    "free_slots": 0
  },
  {
    "id": 85302,
    "name": "133 Willemdok",
    "straat": "Entrepotplaats",
    "postcode": 2000,
    "capaciteit": 24,
    "status": "IN_GEBRUIK",
    "free_bikes": 11,
    "free_slots": 0
  },
  {
    "id": 85303,
    "name": "124 Park Spoor Noord 1",
    "straat": "Ellermanstraat",
    "postcode": 2060,
    "capaciteit": 30,
    "status": "IN_GEBRUIK",
    "free_bikes": 10,
    "free_slots": 8
  },
  {
    "id": 85304,
    "name": "068 Turnhoutsepoort",
    "straat": "Turnhoutsebaan",
    "postcode": 2140,
    "capaciteit": 30,
    "status": "IN_GEBRUIK",
    "free_bikes": 7,
    "free_slots": 16
  },
  {
    "id": 85305,
    "name": "062 Station Dam",
    "straat": "Lange Lobroekstraat",
    "postcode": 2060,
    "capaciteit": 24,
    "status": "IN_GEBRUIK",
    "free_bikes": 10,
    "free_slots": 0
  },
  {
    "id": 85306,
    "name": "063 Slachthuis",
    "straat": "Lange Lobroekstraat",
    "postcode": 2060,
    "capaciteit": 36,
    "status": "IN_GEBRUIK",
    "free_bikes": 21,
    "free_slots": 0
  },
  {
    "id": 85307,
    "name": "038 Pastorijstraat",
    "straat": "Pastorijstraat",
    "postcode": 2060,
    "capaciteit": 21,
    "status": "IN_GEBRUIK",
    "free_bikes": 13,
    "free_slots": 0
  },
  {
    "id": 85308,
    "name": "073 Maarschalk Gerard",
    "straat": "Maarschalk G\u00e9rardstraat",
    "postcode": 2000,
    "capaciteit": 36,
    "status": "IN_GEBRUIK",
    "free_bikes": 0,
    "free_slots": 36
  },
  {
    "id": 85309,
    "name": "013 De Singel 1",
    "straat": "Jan Van Rijswijcklaan",
    "postcode": 2018,
    "capaciteit": 36,
    "status": "IN_GEBRUIK",
    "free_bikes": 0,
    "free_slots": 36
  },
  {
    "id": 85310,
    "name": "048 De Keyserlei 2",
    "straat": "De Keyserlei",
    "postcode": 2018,
    "capaciteit": 33,
    "status": "IN_GEBRUIK",
    "free_bikes": 13,
    "free_slots": 0
  },
  {
    "id": 85311,
    "name": "136 Spoor Noord Skatebowl",
    "straat": "Hardenvoort",
    "postcode": 2060,
    "capaciteit": 33,
    "status": "IN_GEBRUIK",
    "free_bikes": 18,
    "free_slots": 3
  },
  {
    "id": 85312,
    "name": "154 Terloplein",
    "straat": "Terloplein",
    "postcode": 2140,
    "capaciteit": 33,
    "status": "IN_GEBRUIK",
    "free_bikes": 9,
    "free_slots": 15
  },
  {
    "id": 85313,
    "name": "155 Statielei",
    "straat": "Statielei",
    "postcode": 2140,
    "capaciteit": 36,
    "status": "IN_GEBRUIK",
    "free_bikes": 7,
    "free_slots": 19
  },
  {
    "id": 85315,
    "name": "158 Zuidervelodroom",
    "straat": "Zuidervelodroom",
    "postcode": 2018,
    "capaciteit": 36,
    "status": "IN_GEBRUIK",
    "free_bikes": 14,
    "free_slots": 0
  },
  {
    "id": 85316,
    "name": "159 Den Bell 2",
    "straat": "Boudewijnssteeg",
    "postcode": 2018,
    "capaciteit": 30,
    "status": "IN_GEBRUIK",
    "free_bikes": 13,
    "free_slots": 0
  },
  {
    "id": 85317,
    "name": "160 Vlinderpaleis",
    "straat": "Brusselstraat",
    "postcode": 2018,
    "capaciteit": 36,
    "status": "IN_GEBRUIK",
    "free_bikes": 9,
    "free_slots": 25
  },
  {
    "id": 85318,
    "name": "201 Havana",
    "straat": "Havanastraat",
    "postcode": 2030,
    "capaciteit": 36,
    "status": "IN_GEBRUIK",
    "free_bikes": 2,
    "free_slots": 32
  },
  {
    "id": 85319,
    "name": "202 Squarepark",
    "straat": "Houstonstraat",
    "postcode": 2030,
    "capaciteit": 24,
    "status": "IN_GEBRUIK",
    "free_bikes": 12,
    "free_slots": 0
  },
  {
    "id": 85320,
    "name": "203 Venezuelastraat",
    "straat": "Columbiastraat",
    "postcode": 2030,
    "capaciteit": 36,
    "status": "IN_GEBRUIK",
    "free_bikes": 20,
    "free_slots": 0
  },
  {
    "id": 85321,
    "name": "204 Luchtbal winkelcentrum",
    "straat": "Noorderlaan",
    "postcode": 2030,
    "capaciteit": 36,
    "status": "IN_GEBRUIK",
    "free_bikes": 18,
    "free_slots": 0
  },
  {
    "id": 85322,
    "name": "205 Kinepolis",
    "straat": "Groenendaallaan",
    "postcode": 2030,
    "capaciteit": 36,
    "status": "IN_GEBRUIK",
    "free_bikes": 7,
    "free_slots": 19
  },
  {
    "id": 85323,
    "name": "206 Station Luchtbal",
    "straat": "Bermstraat",
    "postcode": 2030,
    "capaciteit": 33,
    "status": "IN_GEBRUIK",
    "free_bikes": 3,
    "free_slots": 24
  },
  {
    "id": 85324,
    "name": "207 P&R Merksem",
    "straat": "Van Praetlei",
    "postcode": 2170,
    "capaciteit": 36,
    "status": "IN_GEBRUIK",
    "free_bikes": 2,
    "free_slots": 32
  },
  {
    "id": 85325,
    "name": "208 Ringlaan Atheneum",
    "straat": "Ringlaan",
    "postcode": 2170,
    "capaciteit": 36,
    "status": "IN_GEBRUIK",
    "free_bikes": 2,
    "free_slots": 32
  },
  {
    "id": 85326,
    "name": "209 Melgeshof",
    "straat": "Korte Bremstraat",
    "postcode": 2170,
    "capaciteit": 36,
    "status": "IN_GEBRUIK",
    "free_bikes": 4,
    "free_slots": 26
  },
  {
    "id": 85327,
    "name": "210 Maantjessteenweg",
    "straat": "Maantjessteenweg",
    "postcode": 2170,
    "capaciteit": 36,
    "status": "IN_GEBRUIK",
    "free_bikes": 0,
    "free_slots": 36
  },
  {
    "id": 85328,
    "name": "211 Cultuurcentrum",
    "straat": "Rodeloopstraat",
    "postcode": 2170,
    "capaciteit": 36,
    "status": "IN_GEBRUIK",
    "free_bikes": 18,
    "free_slots": 0
  },
  {
    "id": 85329,
    "name": "212 Rode Loop",
    "straat": "Rodeloopstraat",
    "postcode": 2170,
    "capaciteit": 36,
    "status": "IN_GEBRUIK",
    "free_bikes": 0,
    "free_slots": 36
  },
  {
    "id": 85330,
    "name": "213 Kroonplein",
    "straat": "Kroonplein",
    "postcode": 2170,
    "capaciteit": 30,
    "status": "IN_GEBRUIK",
    "free_bikes": 1,
    "free_slots": 26
  },
  {
    "id": 85331,
    "name": "214 Kerkhofblommen",
    "straat": "Lambrechtshoekenlaan",
    "postcode": 2170,
    "capaciteit": 36,
    "status": "IN_GEBRUIK",
    "free_bikes": 0,
    "free_slots": 36
  },
  {
    "id": 85332,
    "name": "215 Nieuwdreef",
    "straat": "Nieuwdreef",
    "postcode": 2170,
    "capaciteit": 36,
    "status": "IN_GEBRUIK",
    "free_bikes": 0,
    "free_slots": 36
  },
  {
    "id": 85333,
    "name": "216 Zwembad Merksem",
    "straat": "Van Heybeeckstraat",
    "postcode": 2170,
    "capaciteit": 30,
    "status": "IN_GEBRUIK",
    "free_bikes": 3,
    "free_slots": 25
  },
  {
    "id": 85334,
    "name": "217 Joske Vermeulen",
    "straat": "Bredabaan",
    "postcode": 2170,
    "capaciteit": 30,
    "status": "IN_GEBRUIK",
    "free_bikes": 12,
    "free_slots": 8
  },
  {
    "id": 85335,
    "name": "218 Groenendaalcollege",
    "straat": "Ullenshofstraat",
    "postcode": 2170,
    "capaciteit": 36,
    "status": "IN_GEBRUIK",
    "free_bikes": 6,
    "free_slots": 22
  },
  {
    "id": 85336,
    "name": "219 Districtshuis Merksem",
    "straat": "Borrewaterstraat",
    "postcode": 2170,
    "capaciteit": 33,
    "status": "IN_GEBRUIK",
    "free_bikes": 4,
    "free_slots": 24
  },
  {
    "id": 85337,
    "name": "220 't Dokske",
    "straat": "Sint-Bartholomeusstraat",
    "postcode": 2170,
    "capaciteit": 30,
    "status": "IN_GEBRUIK",
    "free_bikes": 0,
    "free_slots": 30
  },
  {
    "id": 85338,
    "name": "222 Cadix Oost",
    "straat": "Binnenvaartstraat",
    "postcode": 2000,
    "capaciteit": 36,
    "status": "IN_GEBRUIK",
    "free_bikes": 15,
    "free_slots": 4
  },
  {
    "id": 85339,
    "name": "223 Red Star Line",
    "straat": "Rijnkaai",
    "postcode": 2000,
    "capaciteit": 36,
    "status": "IN_GEBRUIK",
    "free_bikes": 0,
    "free_slots": 36
  },
  {
    "id": 85340,
    "name": "224 Indi\u00ebstraat",
    "straat": "Indi\u00ebstraat",
    "postcode": 2030,
    "capaciteit": 36,
    "status": "IN_GEBRUIK",
    "free_bikes": 6,
    "free_slots": 26
  },
  {
    "id": 85341,
    "name": "225 Verbindingsdok Eilandje",
    "straat": "Verbindingsdok-Oostkaai",
    "postcode": 2000,
    "capaciteit": 36,
    "status": "IN_GEBRUIK",
    "free_bikes": 21,
    "free_slots": 0
  },
  {
    "id": 85342,
    "name": "226 Noordschippersdok",
    "straat": "Noordschippersdok",
    "postcode": 2060,
    "capaciteit": 36,
    "status": "IN_GEBRUIK",
    "free_bikes": 16,
    "free_slots": 0
  },
  {
    "id": 85343,
    "name": "227 Amstel",
    "straat": "Van Cortbeemdelei",
    "postcode": 2100,
    "capaciteit": 24,
    "status": "IN_GEBRUIK",
    "free_bikes": 0,
    "free_slots": 24
  },
  {
    "id": 85344,
    "name": "228 Van Heetvelde",
    "straat": "Van Deynsestraat",
    "postcode": 2100,
    "capaciteit": 24,
    "status": "IN_GEBRUIK",
    "free_bikes": 8,
    "free_slots": 0
  },
  {
    "id": 85345,
    "name": "229 Jozef Nellens",
    "straat": "Jozef Nellenslei",
    "postcode": 2100,
    "capaciteit": 36,
    "status": "IN_GEBRUIK",
    "free_bikes": 17,
    "free_slots": 8
  },
  {
    "id": 85346,
    "name": "230 Bosuil",
    "straat": "Sint-Fredegandusstraat",
    "postcode": 2100,
    "capaciteit": 36,
    "status": "IN_GEBRUIK",
    "free_bikes": 21,
    "free_slots": 0
  },
  {
    "id": 85347,
    "name": "231 den Antwerp",
    "straat": "Gallifortlei",
    "postcode": 2100,
    "capaciteit": 36,
    "status": "IN_GEBRUIK",
    "free_bikes": 13,
    "free_slots": 0
  },
  {
    "id": 85348,
    "name": "232 Wim Saerens",
    "straat": "Wim Saerensplein",
    "postcode": 2100,
    "capaciteit": 36,
    "status": "IN_GEBRUIK",
    "free_bikes": 19,
    "free_slots": 0
  },
  {
    "id": 85349,
    "name": "233 Gallifort",
    "straat": "Gallifortlei",
    "postcode": 2100,
    "capaciteit": 36,
    "status": "IN_GEBRUIK",
    "free_bikes": 7,
    "free_slots": 27
  },
  {
    "id": 85350,
    "name": "234 Deurne Atheneum",
    "straat": "Jan Brochovenstraat",
    "postcode": 2100,
    "capaciteit": 36,
    "status": "IN_GEBRUIK",
    "free_bikes": 0,
    "free_slots": 36
  },
  {
    "id": 85351,
    "name": "235 Cogelsplein",
    "straat": "Cogelsplein",
    "postcode": 2100,
    "capaciteit": 36,
    "status": "IN_GEBRUIK",
    "free_bikes": 0,
    "free_slots": 36
  },
  {
    "id": 85352,
    "name": "236 Districthuis Deurne",
    "straat": "Maurice Dequeeckerplein",
    "postcode": 2100,
    "capaciteit": 36,
    "status": "IN_GEBRUIK",
    "free_bikes": 11,
    "free_slots": 17
  },
  {
    "id": 85353,
    "name": "237 Ter Rivieren",
    "straat": "Ter Rivierenlaan",
    "postcode": 2100,
    "capaciteit": 36,
    "status": "IN_GEBRUIK",
    "free_bikes": 0,
    "free_slots": 36
  },
  {
    "id": 85354,
    "name": "238 Ertbrugge",
    "straat": "Ertbruggelaan",
    "postcode": 2100,
    "capaciteit": 24,
    "status": "IN_GEBRUIK",
    "free_bikes": 10,
    "free_slots": 11
  },
  {
    "id": 85355,
    "name": "239 Zwarte Arend",
    "straat": "Ruggeveldlaan",
    "postcode": 2100,
    "capaciteit": 30,
    "status": "IN_GEBRUIK",
    "free_bikes": 13,
    "free_slots": 0
  },
  {
    "id": 85356,
    "name": "240 Park Groot Schijn",
    "straat": "Ruggeveldlaan",
    "postcode": 2100,
    "capaciteit": 36,
    "status": "IN_GEBRUIK",
    "free_bikes": 16,
    "free_slots": 0
  },
  {
    "id": 85357,
    "name": "241 Kerkendijk",
    "straat": "Collegelaan",
    "postcode": 2140,
    "capaciteit": 36,
    "status": "IN_GEBRUIK",
    "free_bikes": 6,
    "free_slots": 21
  },
  {
    "id": 85358,
    "name": "242 Te Boelaerlei",
    "straat": "Luitenant Lippenslaan",
    "postcode": 2140,
    "capaciteit": 36,
    "status": "IN_GEBRUIK",
    "free_bikes": 2,
    "free_slots": 31
  },
  {
    "id": 85359,
    "name": "243 Mestputteke",
    "straat": "Herentalsebaan",
    "postcode": 2100,
    "capaciteit": 36,
    "status": "IN_GEBRUIK",
    "free_bikes": 5,
    "free_slots": 19
  },
  {
    "id": 85360,
    "name": "244 Waterbaan",
    "straat": "Herentalsebaan",
    "postcode": 2100,
    "capaciteit": 36,
    "status": "IN_GEBRUIK",
    "free_bikes": 18,
    "free_slots": 1
  },
  {
    "id": 85361,
    "name": "245 AZ Monica",
    "straat": "Florent Pauwelslei",
    "postcode": 2100,
    "capaciteit": 36,
    "status": "IN_GEBRUIK",
    "free_bikes": 14,
    "free_slots": 0
  },
  {
    "id": 85362,
    "name": "246 Arena",
    "straat": "Arenaplein",
    "postcode": 2100,
    "capaciteit": 36,
    "status": "IN_GEBRUIK",
    "free_bikes": 15,
    "free_slots": 7
  },
  {
    "id": 85363,
    "name": "247 ZNA Erasmus",
    "straat": "Luitenant Lippenslaan",
    "postcode": 2140,
    "capaciteit": 36,
    "status": "IN_GEBRUIK",
    "free_bikes": 0,
    "free_slots": 36
  },
  {
    "id": 85364,
    "name": "248 De Schans",
    "straat": "Berchemlei",
    "postcode": 2140,
    "capaciteit": 36,
    "status": "IN_GEBRUIK",
    "free_bikes": 11,
    "free_slots": 13
  },
  {
    "id": 85365,
    "name": "249 Frans de Vriendt",
    "straat": "Frans De Vriendtstraat",
    "postcode": 2140,
    "capaciteit": 30,
    "status": "IN_GEBRUIK",
    "free_bikes": 0,
    "free_slots": 30
  },
  {
    "id": 85366,
    "name": "250 Borsbeekbrug",
    "straat": "Diksmuidelaan",
    "postcode": 2600,
    "capaciteit": 36,
    "status": "IN_GEBRUIK",
    "free_bikes": 19,
    "free_slots": 0
  },
  {
    "id": 85367,
    "name": "251Te Boelaerpark Noord",
    "straat": "Arthur Matthyslaan",
    "postcode": 2140,
    "capaciteit": 30,
    "status": "IN_GEBRUIK",
    "free_bikes": 4,
    "free_slots": 24
  },
  {
    "id": 85368,
    "name": "252 Te Boelaerpark/Gitschotelei",
    "straat": "Karel De Preterlei",
    "postcode": 2140,
    "capaciteit": 33,
    "status": "IN_GEBRUIK",
    "free_bikes": 9,
    "free_slots": 11
  },
  {
    "id": 85369,
    "name": "253 Vosplein",
    "straat": "Vosstraat",
    "postcode": 2140,
    "capaciteit": 36,
    "status": "IN_GEBRUIK",
    "free_bikes": 5,
    "free_slots": 26
  },
  {
    "id": 85370,
    "name": "254 Sint-Jozef",
    "straat": "Boekenberglei",
    "postcode": 2100,
    "capaciteit": 30,
    "status": "IN_GEBRUIK",
    "free_bikes": 16,
    "free_slots": 0
  },
  {
    "id": 85371,
    "name": "255 Van den Haute",
    "straat": "Van Den Hautelei",
    "postcode": 2100,
    "capaciteit": 36,
    "status": "IN_GEBRUIK",
    "free_bikes": 15,
    "free_slots": 0
  },
  {
    "id": 85372,
    "name": "256 Zillebeek",
    "straat": "Helderstraat",
    "postcode": 2600,
    "capaciteit": 27,
    "status": "IN_GEBRUIK",
    "free_bikes": 0,
    "free_slots": 27
  },
  {
    "id": 85373,
    "name": "257 Hofstade",
    "straat": "Hofstadestraat",
    "postcode": 2600,
    "capaciteit": 36,
    "status": "IN_GEBRUIK",
    "free_bikes": 0,
    "free_slots": 36
  },
  {
    "id": 85374,
    "name": "258 Hof van Nauwelaerts",
    "straat": "Lodewijk Van Berckenlaan",
    "postcode": 2600,
    "capaciteit": 30,
    "status": "IN_GEBRUIK",
    "free_bikes": 0,
    "free_slots": 30
  },
  {
    "id": 85375,
    "name": "259 Posthofbrug",
    "straat": "Posthofbrug",
    "postcode": 2600,
    "capaciteit": 36,
    "status": "IN_GEBRUIK",
    "free_bikes": 17,
    "free_slots": 0
  },
  {
    "id": 85376,
    "name": "260 Ter Schriek",
    "straat": "Hof Ter Schriecklaan",
    "postcode": 2600,
    "capaciteit": 27,
    "status": "IN_GEBRUIK",
    "free_bikes": 12,
    "free_slots": 0
  },
  {
    "id": 85377,
    "name": "261 Brilschans",
    "straat": "Henri Prostlaan",
    "postcode": 2600,
    "capaciteit": 36,
    "status": "IN_GEBRUIK",
    "free_bikes": 9,
    "free_slots": 0
  },
  {
    "id": 85378,
    "name": "262 Hoogveld",
    "straat": "Rooi",
    "postcode": 2600,
    "capaciteit": 36,
    "status": "IN_GEBRUIK",
    "free_bikes": 0,
    "free_slots": 36
  },
  {
    "id": 85379,
    "name": "263 Fruithoflaan 2",
    "straat": "Fruithoflaan",
    "postcode": 2600,
    "capaciteit": 36,
    "status": "IN_GEBRUIK",
    "free_bikes": 14,
    "free_slots": 0
  },
  {
    "id": 85380,
    "name": "264 Filip Williotstraat",
    "straat": "Filip Williotstraat",
    "postcode": 2600,
    "capaciteit": 36,
    "status": "IN_GEBRUIK",
    "free_bikes": 0,
    "free_slots": 36
  },
  {
    "id": 85381,
    "name": "265 Pulhof",
    "straat": "Pulhoflaan",
    "postcode": 2600,
    "capaciteit": 30,
    "status": "IN_GEBRUIK",
    "free_bikes": 0,
    "free_slots": 30
  },
  {
    "id": 85382,
    "name": "266 Fruithoflaan 1",
    "straat": "Fruithoflaan",
    "postcode": 2600,
    "capaciteit": 36,
    "status": "IN_GEBRUIK",
    "free_bikes": 0,
    "free_slots": 36
  },
  {
    "id": 85383,
    "name": "267 Leopold",
    "straat": "Prins Leopoldlaan",
    "postcode": 2600,
    "capaciteit": 30,
    "status": "IN_GEBRUIK",
    "free_bikes": 5,
    "free_slots": 15
  },
  {
    "id": 85384,
    "name": "268 ZNA Middelheim",
    "straat": "Lindendreef",
    "postcode": 2020,
    "capaciteit": 36,
    "status": "IN_GEBRUIK",
    "free_bikes": 15,
    "free_slots": 7
  },
  {
    "id": 85385,
    "name": "269 Middelheim",
    "straat": "Troyentenhoflaan",
    "postcode": 2600,
    "capaciteit": 30,
    "status": "IN_GEBRUIK",
    "free_bikes": 14,
    "free_slots": 1
  },
  {
    "id": 85386,
    "name": "270 Dikke Mee",
    "straat": "Eglantierlaan",
    "postcode": 2020,
    "capaciteit": 36,
    "status": "IN_GEBRUIK",
    "free_bikes": 0,
    "free_slots": 36
  },
  {
    "id": 85387,
    "name": "271 Middelheim Museum",
    "straat": "Beukenlaan",
    "postcode": 2020,
    "capaciteit": 36,
    "status": "IN_GEBRUIK",
    "free_bikes": 19,
    "free_slots": 0
  },
  {
    "id": 85388,
    "name": "272 Groenenborger",
    "straat": "Groenenborgerlaan",
    "postcode": 2020,
    "capaciteit": 30,
    "status": "IN_GEBRUIK",
    "free_bikes": 2,
    "free_slots": 26
  },
  {
    "id": 85389,
    "name": "273 Campus Groenenborger",
    "straat": "Oosterveldlaan",
    "postcode": 2610,
    "capaciteit": 36,
    "status": "IN_GEBRUIK",
    "free_bikes": 20,
    "free_slots": 0
  },
  {
    "id": 85390,
    "name": "274 De Bist",
    "straat": "Bist",
    "postcode": 2610,
    "capaciteit": 30,
    "status": "IN_GEBRUIK",
    "free_bikes": 0,
    "free_slots": 30
  },
  {
    "id": 85391,
    "name": "275 Sneeuwbes",
    "straat": "Groenenborgerlaan",
    "postcode": 2610,
    "capaciteit": 36,
    "status": "IN_GEBRUIK",
    "free_bikes": 0,
    "free_slots": 36
  },
  {
    "id": 85392,
    "name": "276 Corbusier",
    "straat": "Kruishofstraat",
    "postcode": 2610,
    "capaciteit": 36,
    "status": "IN_GEBRUIK",
    "free_bikes": 0,
    "free_slots": 36
  },
  {
    "id": 85393,
    "name": "277 Ahornen",
    "straat": "Ahornenlaan",
    "postcode": 2610,
    "capaciteit": 36,
    "status": "IN_GEBRUIK",
    "free_bikes": 18,
    "free_slots": 0
  },
  {
    "id": 85394,
    "name": "278 Oversnes",
    "straat": "Oversneslaan",
    "postcode": 2610,
    "capaciteit": 36,
    "status": "IN_GEBRUIK",
    "free_bikes": 18,
    "free_slots": 0
  },
  {
    "id": 85395,
    "name": "279 Ieperman",
    "straat": "Doornstraat",
    "postcode": 2610,
    "capaciteit": 36,
    "status": "IN_GEBRUIK",
    "free_bikes": 25,
    "free_slots": 0
  },
  {
    "id": 85396,
    "name": "280 Marmotteke",
    "straat": "Bosheidelaan",
    "postcode": 2610,
    "capaciteit": 36,
    "status": "IN_GEBRUIK",
    "free_bikes": 17,
    "free_slots": 0
  },
  {
    "id": 85397,
    "name": "281 Hof van Tichelen",
    "straat": "Hof Van Tichelen",
    "postcode": 2020,
    "capaciteit": 36,
    "status": "IN_GEBRUIK",
    "free_bikes": 20,
    "free_slots": 0
  },
  {
    "id": 85398,
    "name": "282 De Letter",
    "straat": "Letterkundestraat",
    "postcode": 2610,
    "capaciteit": 36,
    "status": "IN_GEBRUIK",
    "free_bikes": 11,
    "free_slots": 9
  },
  {
    "id": 85399,
    "name": "283 Hollebeek",
    "straat": "Hollebeekstraat",
    "postcode": 2660,
    "capaciteit": 36,
    "status": "IN_GEBRUIK",
    "free_bikes": 18,
    "free_slots": 0
  },
  {
    "id": 85400,
    "name": "284 Steynstraat",
    "straat": "Steynstraat",
    "postcode": 2660,
    "capaciteit": 36,
    "status": "IN_GEBRUIK",
    "free_bikes": 23,
    "free_slots": 0
  },
  {
    "id": 85401,
    "name": "286 Station Hoboken/Polderstad",
    "straat": "Berkenrodelei",
    "postcode": 2660,
    "capaciteit": 36,
    "status": "BUITEN_GEBRUIK",
    "free_bikes": 18,
    "free_slots": 0
  },
  {
    "id": 85402,
    "name": "287 Kioskplaats/Centrum",
    "straat": "Berkenrodelei",
    "postcode": 2660,
    "capaciteit": 36,
    "status": "IN_GEBRUIK",
    "free_bikes": 13,
    "free_slots": 0
  },
  {
    "id": 85403,
    "name": "288 Draaiboom",
    "straat": "Draaiboomstraat",
    "postcode": 2660,
    "capaciteit": 36,
    "status": "IN_GEBRUIK",
    "free_bikes": 11,
    "free_slots": 12
  },
  {
    "id": 85404,
    "name": "289 Broydenborgpark",
    "straat": "Walstraat",
    "postcode": 2660,
    "capaciteit": 36,
    "status": "IN_GEBRUIK",
    "free_bikes": 0,
    "free_slots": 36
  },
  {
    "id": 85405,
    "name": "290 Co\u00f6peratielaan",
    "straat": "Sint-Bernardsesteenweg",
    "postcode": 2660,
    "capaciteit": 36,
    "status": "IN_GEBRUIK",
    "free_bikes": 0,
    "free_slots": 36
  },
  {
    "id": 85406,
    "name": "291 Braem blokken",
    "straat": "Maurits Sabbelaan",
    "postcode": 2020,
    "capaciteit": 36,
    "status": "IN_GEBRUIK",
    "free_bikes": 0,
    "free_slots": 36
  },
  {
    "id": 85407,
    "name": "292 Kielpark",
    "straat": "Jacob Le Mairestraat",
    "postcode": 2020,
    "capaciteit": 36,
    "status": "IN_GEBRUIK",
    "free_bikes": 20,
    "free_slots": 0
  },
  {
    "id": 85408,
    "name": "293 Edgard Castelein",
    "straat": "Pol De Montstraat",
    "postcode": 2020,
    "capaciteit": 36,
    "status": "IN_GEBRUIK",
    "free_bikes": 0,
    "free_slots": 36
  },
  {
    "id": 85409,
    "name": "294 Den Tir",
    "straat": "Valerius De Saedeleerstraat",
    "postcode": 2020,
    "capaciteit": 36,
    "status": "IN_GEBRUIK",
    "free_bikes": 0,
    "free_slots": 36
  },
  {
    "id": 85410,
    "name": "295 Sporthal Kiel",
    "straat": "Emiel Vloorsstraat",
    "postcode": 2020,
    "capaciteit": 36,
    "status": "IN_GEBRUIK",
    "free_bikes": 0,
    "free_slots": 36
  },
  {
    "id": 85411,
    "name": "296 Mastvest",
    "straat": "Eric Sasselaan",
    "postcode": 2020,
    "capaciteit": 30,
    "status": "IN_GEBRUIK",
    "free_bikes": 0,
    "free_slots": 30
  },
  {
    "id": 85412,
    "name": "297 Tentoonstellingswijk",
    "straat": "Jan De Voslei",
    "postcode": 2020,
    "capaciteit": 36,
    "status": "IN_GEBRUIK",
    "free_bikes": 15,
    "free_slots": 0
  },
  {
    "id": 85413,
    "name": "298 Koornbloem",
    "straat": "Valkstraat",
    "postcode": 2610,
    "capaciteit": 27,
    "status": "IN_GEBRUIK",
    "free_bikes": 17,
    "free_slots": 0
  },
  {
    "id": 85414,
    "name": "299 Antwerp Expo",
    "straat": "Camille Huysmanslaan",
    "postcode": 2020,
    "capaciteit": 36,
    "status": "IN_GEBRUIK",
    "free_bikes": 0,
    "free_slots": 36
  },
  {
    "id": 85415,
    "name": "300 Wilrijksepleinen",
    "straat": "Vogelzanglaan",
    "postcode": 2020,
    "capaciteit": 36,
    "status": "IN_GEBRUIK",
    "free_bikes": 21,
    "free_slots": 0
  },
  {
    "id": 85416,
    "name": "301 Luchthaven",
    "straat": "Luchthavenlei",
    "postcode": 2100,
    "capaciteit": 30,
    "status": "IN_GEBRUIK",
    "free_bikes": 0,
    "free_slots": 30
  },
  {
    "id": 85417,
    "name": "302 Rozenkrans",
    "straat": "Rozenkransplein",
    "postcode": 2610,
    "capaciteit": 30,
    "status": "IN_GEBRUIK",
    "free_bikes": 3,
    "free_slots": 20
  },
  {
    "id": 85418,
    "name": "285 Hoge beuken",
    "straat": "Commandant Weynsstraat",
    "postcode": 2660,
    "capaciteit": 27,
    "status": "IN_GEBRUIK",
    "free_bikes": 9,
    "free_slots": 8
  },
  {
    "id": 85419,
    "name": "221 Havenhuis",
    "straat": "Mexicostraat",
    "postcode": 2030,
    "capaciteit": 36,
    "status": "IN_GEBRUIK",
    "free_bikes": 20,
    "free_slots": 0
  },
  {
    "id": 85420,
    "name": "303 Kambala",
    "straat": "Kambalastraat",
    "postcode": 2030,
    "capaciteit": 36,
    "status": "IN_GEBRUIK",
    "free_bikes": 9,
    "free_slots": 20
  },
  {
    "id": 85421,
    "name": "304 Campinia",
    "straat": "Campiniastraat",
    "postcode": 2170,
    "capaciteit": 36,
    "status": "IN_GEBRUIK",
    "free_bikes": 14,
    "free_slots": 7
  },
  {
    "id": 85422,
    "name": "156 Gasstraat",
    "straat": "Van Kerckhovenstraat",
    "postcode": 2060,
    "capaciteit": 30,
    "status": "IN_GEBRUIK",
    "free_bikes": 0,
    "free_slots": 30
  },
  {
    "id": 85423,
    "name": "161 Hospitaalplein",
    "straat": "Lange Leemstraat",
    "postcode": 2018,
    "capaciteit": 36,
    "status": "IN_GEBRUIK",
    "free_bikes": 5,
    "free_slots": 29
  },
  {
    "id": 85424,
    "name": "305 Ter Nieuwerbrugge",
    "straat": "Ter Nieuwerbrugge",
    "postcode": 2600,
    "capaciteit": 36,
    "status": "IN_GEBRUIK",
    "free_bikes": 0,
    "free_slots": 36
  },
  {
    "id": 85425,
    "name": "307 Baron Sadoin",
    "straat": "Baron Sadoinestraat",
    "postcode": 2660,
    "capaciteit": 36,
    "status": "IN_GEBRUIK",
    "free_bikes": 23,
    "free_slots": 0
  },
  {
    "id": 85426,
    "name": "308 KDG Campus Hoboken",
    "straat": "Majoor Maelfaitplein",
    "postcode": 2660,
    "capaciteit": 36,
    "status": "IN_GEBRUIK",
    "free_bikes": 22,
    "free_slots": 0
  },
  {
    "id": 85427,
    "name": "309 De Torekens",
    "straat": "Paul Henri Spaaklaan",
    "postcode": 2660,
    "capaciteit": 36,
    "status": "IN_GEBRUIK",
    "free_bikes": 0,
    "free_slots": 36
  },
  {
    "id": 85428,
    "name": "310 Sporthal Sorghvliedt",
    "straat": "Krijgsbaan",
    "postcode": 2660,
    "capaciteit": 36,
    "status": "IN_GEBRUIK",
    "free_bikes": 0,
    "free_slots": 36
  },
  {
    "id": 85429,
    "name": "311 Cockerillhof",
    "straat": "Cockerillplaats",
    "postcode": 2660,
    "capaciteit": 36,
    "status": "IN_GEBRUIK",
    "free_bikes": 0,
    "free_slots": 36
  },
  {
    "id": 85430,
    "name": "312 Graspolder",
    "straat": "Graspolderlaan",
    "postcode": 2660,
    "capaciteit": 36,
    "status": "IN_GEBRUIK",
    "free_bikes": 14,
    "free_slots": 14
  },
  {
    "id": 85431,
    "name": "314 Schoonselhof",
    "straat": "Sint Bernaardsestwg",
    "postcode": 2660,
    "capaciteit": 36,
    "status": "IN_GEBRUIK",
    "free_bikes": 0,
    "free_slots": 36
  },
  {
    "id": 85432,
    "name": "320 Den Brem",
    "straat": "Den Brem",
    "postcode": 2610,
    "capaciteit": 36,
    "status": "IN_GEBRUIK",
    "free_bikes": 14,
    "free_slots": 5
  },
  {
    "id": 85433,
    "name": "163 Pluvier",
    "straat": "Galgenweellaan",
    "postcode": 2050,
    "capaciteit": 36,
    "status": "IN_GEBRUIK",
    "free_bikes": 12,
    "free_slots": 8
  },
  {
    "id": 85434,
    "name": "317 Distelhoek",
    "straat": "Ganzemate",
    "postcode": 2170,
    "capaciteit": 36,
    "status": "IN_GEBRUIK",
    "free_bikes": 19,
    "free_slots": 0
  },
  {
    "id": 85435,
    "name": "316 D. E. Van Damme",
    "straat": "Dokter Emiel Van Dammestraat",
    "postcode": 2660,
    "capaciteit": 36,
    "status": "IN_GEBRUIK",
    "free_bikes": 0,
    "free_slots": 36
  },
  {
    "id": 85436,
    "name": "322 Malisgoed",
    "straat": "Malisgoed",
    "postcode": 2610,
    "capaciteit": 24,
    "status": "IN_GEBRUIK",
    "free_bikes": 8,
    "free_slots": 0
  },
  {
    "id": 85437,
    "name": "321 Monnikenplein",
    "straat": "Monnikenplein",
    "postcode": 2610,
    "capaciteit": 36,
    "status": "IN_GEBRUIK",
    "free_bikes": 0,
    "free_slots": 36
  },
  {
    "id": 85438,
    "name": "162 Regatta",
    "straat": "Blancefloerlaan",
    "postcode": 2050,
    "capaciteit": 36,
    "status": "IN_GEBRUIK",
    "free_bikes": 21,
    "free_slots": 0
  },
  {
    "id": 85439,
    "name": "325 Paul Vekemans",
    "straat": "Paul Vekemanslaan",
    "postcode": 2660,
    "capaciteit": 30,
    "status": "IN_GEBRUIK",
    "free_bikes": 12,
    "free_slots": 0
  },
  {
    "id": 85440,
    "name": "326 Krugerbrug",
    "straat": NaN,
    "postcode": 2660,
    "capaciteit": 36,
    "status": "IN_GEBRUIK",
    "free_bikes": 21,
    "free_slots": 0
  },
  {
    "id": 85441,
    "name": "327 Ridderveld",
    "straat": "Ridderveld",
    "postcode": 2610,
    "capaciteit": 30,
    "status": "IN_GEBRUIK",
    "free_bikes": 12,
    "free_slots": 0
  },
  {
    "id": 85442,
    "name": "328 Oude Terminus",
    "straat": "Schotensesteenweg",
    "postcode": 2100,
    "capaciteit": 36,
    "status": "IN_GEBRUIK",
    "free_bikes": 0,
    "free_slots": 36
  },
  {
    "id": 85443,
    "name": "323 Sint-Augustinus",
    "straat": "Oosterveldlaan",
    "postcode": 2610,
    "capaciteit": 36,
    "status": "IN_GEBRUIK",
    "free_bikes": 0,
    "free_slots": 36
  },
  {
    "id": 85444,
    "name": "324 Dordrechtlaan",
    "straat": "Dordrechtlaan",
    "postcode": 2100,
    "capaciteit": 24,
    "status": "IN_GEBRUIK",
    "free_bikes": 0,
    "free_slots": 24
  },
  {
    "id": 85445,
    "name": "329 Prosper de Wit",
    "straat": "Prosper De Witstraat",
    "postcode": 2100,
    "capaciteit": 27,
    "status": "IN_GEBRUIK",
    "free_bikes": 10,
    "free_slots": 0
  },
  {
    "id": 85446,
    "name": "330 Meerlenhof",
    "straat": "Meerlenhoflaan",
    "postcode": 2660,
    "capaciteit": 36,
    "status": "IN_GEBRUIK",
    "free_bikes": 0,
    "free_slots": 36
  },
  {
    "id": 85447,
    "name": "331 Zaatlaan",
    "straat": "Zaatlaan",
    "postcode": 2660,
    "capaciteit": 36,
    "status": "IN_GEBRUIK",
    "free_bikes": 23,
    "free_slots": 0
  },
  {
    "id": 85448,
    "name": "332 Valkstraat",
    "straat": "Michel Geysemansstraat",
    "postcode": 2610,
    "capaciteit": 36,
    "status": "IN_GEBRUIK",
    "free_bikes": 3,
    "free_slots": 32
  },
  {
    "id": 85449,
    "name": "333 Frans Adriaenssens/Joma",
    "straat": "Frans Adriaenssensstraat",
    "postcode": 2170,
    "capaciteit": 30,
    "status": "IN_GEBRUIK",
    "free_bikes": 5,
    "free_slots": 17
  },
  {
    "id": 85450,
    "name": "335 Speelplein",
    "straat": "Speelpleinstraat",
    "postcode": 2170,
    "capaciteit": 36,
    "status": "IN_GEBRUIK",
    "free_bikes": 0,
    "free_slots": 36
  },
  {
    "id": 85451,
    "name": "340 Dokter Donny",
    "straat": "Dokter Donnyplein",
    "postcode": 2610,
    "capaciteit": 36,
    "status": "IN_GEBRUIK",
    "free_bikes": 8,
    "free_slots": 23
  },
  {
    "id": 85452,
    "name": "334 Den Haas",
    "straat": "August Van de Wielelei",
    "postcode": 2100,
    "capaciteit": 36,
    "status": "IN_GEBRUIK",
    "free_bikes": 18,
    "free_slots": 0
  },
  {
    "id": 85453,
    "name": "336 Sneeuwbeslaan",
    "straat": "Sneeuwbeslaan",
    "postcode": 2610,
    "capaciteit": 36,
    "status": "IN_GEBRUIK",
    "free_bikes": 0,
    "free_slots": 36
  },
  {
    "id": 85454,
    "name": "337 Verenigde Naties",
    "straat": "Verenigde Natieslaan",
    "postcode": 2660,
    "capaciteit": 24,
    "status": "IN_GEBRUIK",
    "free_bikes": 7,
    "free_slots": 0
  },
  {
    "id": 85455,
    "name": "339 't Veer",
    "straat": "Leo Bosschartlaan",
    "postcode": 2660,
    "capaciteit": 36,
    "status": "BUITEN_GEBRUIK",
    "free_bikes": 17,
    "free_slots": 0
  },
  {
    "id": 85456,
    "name": "313 Eksterlaar 1",
    "straat": "Eksterlaar",
    "postcode": 2100,
    "capaciteit": 36,
    "status": "IN_GEBRUIK",
    "free_bikes": 0,
    "free_slots": 36
  },
  {
    "id": 85457,
    "name": "Elsdonk",
    "straat": "Elsdonklaan",
    "postcode": 2610,
    "capaciteit": 36,
    "status": "IN_GEBRUIK",
    "free_bikes": 18,
    "free_slots": 0
  },
  {
    "id": 85458,
    "name": "319 Schalienmolen",
    "straat": "Schaliemolenstraat",
    "postcode": 2610,
    "capaciteit": 30,
    "status": "IN_GEBRUIK",
    "free_bikes": 0,
    "free_slots": 30
  },
  {
    "id": 85459,
    "name": "128 ZNA Cadix",
    "straat": "Kempenstraat",
    "postcode": 2030,
    "capaciteit": 36,
    "status": "IN_GEBRUIK",
    "free_bikes": 0,
    "free_slots": 36
  },
  {
    "id": 85460,
    "name": "342 Nieuw Zuid",
    "straat": "Jos Smolderenstraat",
    "postcode": 2000,
    "capaciteit": 36,
    "status": "IN_GEBRUIK",
    "free_bikes": 16,
    "free_slots": 4
  },
  {
    "id": 85461,
    "name": "164 AP Ellermanstraat",
    "straat": "Ellermanstraat",
    "postcode": 2060,
    "capaciteit": 36,
    "status": "IN_GEBRUIK",
    "free_bikes": 21,
    "free_slots": 0
  },
  {
    "id": 85462,
    "name": "167 FOD Financi\u00ebn 2",
    "straat": "Itali\u00eblei",
    "postcode": 2000,
    "capaciteit": 30,
    "status": "IN_GEBRUIK",
    "free_bikes": 0,
    "free_slots": 30
  },
  {
    "id": 85463,
    "name": "166 Schoenmarkt",
    "straat": "Schoenmarkt",
    "postcode": 2000,
    "capaciteit": 33,
    "status": "IN_GEBRUIK",
    "free_bikes": 9,
    "free_slots": 13
  },
  {
    "id": 85464,
    "name": "171 Centraal station 3",
    "straat": "Koningin Astridplein",
    "postcode": 2018,
    "capaciteit": 12,
    "status": "IN_GEBRUIK",
    "free_bikes": 0,
    "free_slots": 5
  },
  {
    "id": 85465,
    "name": "165 Den Roscam",
    "straat": "Paardenmarkt",
    "postcode": 2000,
    "capaciteit": 36,
    "status": "IN_GEBRUIK",
    "free_bikes": 14,
    "free_slots": 6
  },
  {
    "id": 85466,
    "name": "172 Centraal station 4",
    "straat": "Koningin Astridplein",
    "postcode": 2018,
    "capaciteit": 12,
    "status": "IN_GEBRUIK",
    "free_bikes": 0,
    "free_slots": 12
  },
  {
    "id": 85467,
    "name": "306 Spoor-Oost",
    "straat": NaN,
    "postcode": 2140,
    "capaciteit": 36,
    "status": "BUITEN_GEBRUIK",
    "free_bikes": 19,
    "free_slots": 0
  },
  {
    "id": 85468,
    "name": "175 Asiadok",
    "straat": NaN,
    "postcode": 2030,
    "capaciteit": 36,
    "status": "IN_GEBRUIK",
    "free_bikes": 0,
    "free_slots": 36
  },
  {
    "id": 85469,
    "name": "173 Franklin Roosevelt",
    "straat": "Franklin Rooseveltplaats",
    "postcode": 2060,
    "capaciteit": 36,
    "status": "IN_GEBRUIK",
    "free_bikes": 0,
    "free_slots": 36
  },
  {
    "id": 85470,
    "name": "170 Quellin",
    "straat": "Quellinstraat",
    "postcode": 2018,
    "capaciteit": 21,
    "status": "IN_GEBRUIK",
    "free_bikes": 3,
    "free_slots": 13
  },
  {
    "id": 85471,
    "name": "Veer LO",
    "straat": "Thonetlaan",
    "postcode": 2050,
    "capaciteit": 36,
    "status": "IN_GEBRUIK",
    "free_bikes": 15,
    "free_slots": 10
  },
  {
    "id": 85472,
    "name": "Mediahuis",
    "straat": "Katwilgweg",
    "postcode": 2050,
    "capaciteit": 36,
    "status": "IN_GEBRUIK",
    "free_bikes": 0,
    "free_slots": 36
  },
  {
    "id": 85473,
    "name": "P&R LO 1",
    "straat": "Blancefloerlaan",
    "postcode": 2050,
    "capaciteit": 36,
    "status": "IN_GEBRUIK",
    "free_bikes": 0,
    "free_slots": 36
  },
  {
    "id": 85474,
    "name": "De Burlet",
    "straat": "De Burletlaan",
    "postcode": 2610,
    "capaciteit": 33,
    "status": "IN_GEBRUIK",
    "free_bikes": 0,
    "free_slots": 33
  },
  {
    "id": 85475,
    "name": "Kwadevelden",
    "straat": "Kwadeveldenplein",
    "postcode": 2170,
    "capaciteit": 30,
    "status": "IN_GEBRUIK",
    "free_bikes": 0,
    "free_slots": 30
  },
  {
    "id": 85476,
    "name": "Jan Palfijn",
    "straat": "Lange Bremstraat",
    "postcode": 2170,
    "capaciteit": 36,
    "status": "IN_GEBRUIK",
    "free_bikes": 1,
    "free_slots": 35
  },
  {
    "id": 85477,
    "name": "Regatta 2",
    "straat": "Kielzoglaan",
    "postcode": 2050,
    "capaciteit": 30,
    "status": "IN_GEBRUIK",
    "free_bikes": 19,
    "free_slots": 0
  },
  {
    "id": 85478,
    "name": "Den Bleek",
    "straat": "Borgerhoutsestraat",
    "postcode": 2140,
    "capaciteit": 30,
    "status": "IN_GEBRUIK",
    "free_bikes": 13,
    "free_slots": 8
  },
  {
    "id": 85479,
    "name": "Krijgslaan",
    "straat": "Krijgslaan",
    "postcode": 2610,
    "capaciteit": 30,
    "status": "IN_GEBRUIK",
    "free_bikes": 15,
    "free_slots": 0
  },
  {
    "id": 85480,
    "name": "Universiteitsplein",
    "straat": "Krijgslaan",
    "postcode": 2610,
    "capaciteit": 36,
    "status": "IN_GEBRUIK",
    "free_bikes": 23,
    "free_slots": 0
  },
  {
    "id": 85481,
    "name": "de Singel 2",
    "straat": "Jan Van Rijswijcklaan",
    "postcode": 2018,
    "capaciteit": 36,
    "status": "IN_GEBRUIK",
    "free_bikes": 0,
    "free_slots": 36
  }
]